NORAD_CAT_ID,OBJECT_NAME,OBJECT_TYPE,EPOCH,MEAN_MOTION,ECCENTRICITY,INCLINATION,RA_OF_ASC_NODE,ARG_OF_PERICENTER,MEAN_ANOMALY,BSTAR,MEAN_MOTION_DOT,MEAN_MOTION_DDOT,TLE_LINE0,TLE_LINE1,TLE_LINE2,SEMIMAJOR_AXIS,PERIOD,APOGEE,PERIGEE,DECAYED
49139.0,STARLINK-3057,PAYLOAD,2022-11-19 07:53:25,14.98340385,0.0003013999999999,70.003,56.1221,269.8395,90.2418,0.00026002,3.012e-05,0.0,0 STARLINK-3057,1 49139U 21082K   22323.32876167  .00003012  00000-0  26002-3 0  9990,2 49139  70.0030  56.1221 0003014 269.8395  90.2418 14.98340385 66264,6950.161,96.106,574.121,569.931,0.0
49139.0,STARLINK-3057,PAYLOAD,2022-11-19 17:30:13,14.98334064,0.0002998,70.0045,55.1109,266.0895,93.9921,5.714600000000001e-05,5.89e-06,0.0,0 STARLINK-3057,1 49139U 21082K   22323.72932392  .00000589  00000-0  57146-4 0  9997,2 49139  70.0045  55.1109 0002998 266.0895  93.9921 14.98334064 66321,6950.18,96.107,574.129,569.962,0.0
49139.0,STARLINK-3057,PAYLOAD,2022-11-19 23:54:45,14.98330151,0.0003028,70.003,54.4389,270.7167,89.3645,-1.7751e-05,-3.05e-06,0.0,0 STARLINK-3057,1 49139U 21082K   22323.99636500 -.00000305  00000-0 -17751-4 0  9994,2 49139  70.0030  54.4389 0003028 270.7167  89.3645 14.98330151 66365,6950.191999999999,96.107,574.1619999999998,569.953,0.0
49139.0,STARLINK-3057,PAYLOAD,2022-11-20 12:43:50,14.98333702,0.0002732,70.0041,53.093,266.783,93.3017,0.00012461,1.394e-05,0.0,0 STARLINK-3057,1 49139U 21082K   22324.53044413  .00001394  00000-0  12461-3 0  9990,2 49139  70.0041  53.0930 0002732 266.7830  93.3017 14.98333702 66449,6950.181,96.107,573.945,570.148,0.0
49139.0,STARLINK-3057,PAYLOAD,2022-11-20 19:08:22,14.98336456,0.0002619,70.00399999999999,52.4196,271.4196,88.6663,0.0001705,1.942e-05,0.0,0 STARLINK-3057,1 49139U 21082K   22324.79748330  .00001942  00000-0  17050-3 0  9995,2 49139  70.0040  52.4196 0002619 271.4196  88.6663 14.98336456 66484,6950.1730000000025,96.107,573.8580000000002,570.2180000000002,0.0
49139.0,STARLINK-3057,PAYLOAD,2022-11-21 09:33:35,14.98330305,0.0002829,70.0038,50.9056,269.7896,90.2939,5.2214e-05,5.3e-06,0.0,0 STARLINK-3057,1 49139U 21082K   22325.39832666  .00000530  00000-0  52214-4 0  9992,2 49139  70.0038  50.9056 0002829 269.7896  90.2939 14.98330305 66571,6950.191999999999,96.107,574.023,570.091,0.0
49139.0,STARLINK-3057,PAYLOAD,2022-11-21 12:45:51,14.98330163,0.0002803,70.0039,50.5691,267.2471,92.8367,2.8651e-05,2.49e-06,0.0,0 STARLINK-3057,1 49139U 21082K   22325.53184666  .00000249  00000-0  28651-4 0  9993,2 49139  70.0039  50.5691 0002803 267.2471  92.8367 14.98330163 66594,6950.191999999999,96.107,574.006,570.109,0.0
49139.0,STARLINK-3057,PAYLOAD,2022-11-21 17:34:15,14.98331497,0.000295,70.0033,50.0633,270.8157,89.2664,8.0385e-05,8.66e-06,0.0,0 STARLINK-3057,1 49139U 21082K   22325.73212648  .00000866  00000-0  80385-4 0  9994,2 49139  70.0033  50.0633 0002950 270.8157  89.2664 14.98331497 66628,6950.188,96.107,574.104,570.003,0.0
49139.0,STARLINK-3057,PAYLOAD,2022-11-22 12:47:52,14.98339891,0.0002913,70.0034,48.0436,270.0924,89.9901,0.00027093,3.142e-05,0.0,0 STARLINK-3057,1 49139U 21082K   22326.53324265  .00003142  00000-0  27093-3 0  9998,2 49139  70.0034  48.0436 0002913 270.0924  89.9901 14.98339891 66740,6950.1619999999975,96.106,574.052,570.003,0.0
49139.0,STARLINK-3057,PAYLOAD,2022-11-22 16:00:08,14.98331044,0.0002401,70.0051,47.7079,274.985,85.1035,0.0001194,1.332e-05,0.0,0 STARLINK-3057,1 49139U 21082K   22326.66676799  .00001332  00000-0  11940-3 0  9997,2 49139  70.0051  47.7079 0002401 274.9850  85.1035 14.98331044 66761,6950.19,96.107,573.7230000000002,570.386,0.0
49139.0,STARLINK-3057,PAYLOAD,2022-11-22 17:36:16,14.98327055,0.0002835,70.005,47.5397,271.0235,89.0599,-3.1229e-05,-4.65e-06,0.0,0 STARLINK-3057,1 49139U 21082K   22326.73352752 -.00000465  00000-0 -31229-4 0  9996,2 49139  70.0050  47.5397 0002835 271.0235  89.0599 14.98327055 66773,6950.2019999999975,96.107,574.0369999999998,570.097,0.0
49139.0,STARLINK-3057,PAYLOAD,2022-11-23 11:13:45,14.983324599999998,0.0003062,70.0037,45.6875,271.9717,88.1092,0.00014119,1.592e-05,0.0,0 STARLINK-3057,1 49139U 21082K   22327.46788621  .00001592  00000-0  14119-3 0  9993,2 49139  70.0037  45.6875 0003062 271.9717  88.1092 14.98332460 66881,6950.185,96.107,574.178,569.922,0.0
49139.0,STARLINK-3057,PAYLOAD,2022-11-23 17:38:17,14.98335209,0.000308,70.0037,45.0143,272.467,87.6137,0.00018883,2.161e-05,0.0,0 STARLINK-3057,1 49139U 21082K   22327.73492494  .00002161  00000-0  18883-3 0  9998,2 49139  70.0037  45.0143 0003080 272.4670  87.6137 14.98335209 66920,6950.177,96.107,574.182,569.901,0.0
49139.0,STARLINK-3057,PAYLOAD,2022-11-24 11:15:46,14.98328849,0.0003115,70.0035,43.1627,271.6314,88.4488,-4.34e-06,-1.45e-06,0.0,0 STARLINK-3057,1 49139U 21082K   22328.46928809 -.00000145  00000-0 -43400-5 0  9990,2 49139  70.0035  43.1627 0003115 271.6314  88.4488 14.98328849 67032,6950.196,96.107,574.226,569.896,0.0
49139.0,STARLINK-3057,PAYLOAD,2022-11-24 12:51:54,14.98327374,0.0002972,70.0039,42.9947,269.595,90.4868,-3.0777e-05,-4.6e-06,0.0,0 STARLINK-3057,1 49139U 21082K   22328.53604903 -.00000460  00000-0 -30777-4 0  9996,2 49139  70.0039  42.9947 0002972 269.5950  90.4868 14.98327374 67048,6950.201,96.107,574.132,570.0,0.0
49139.0,STARLINK-3057,PAYLOAD,2022-11-24 14:28:02,14.98327493,0.0002972,70.0039,42.8265,269.6348,90.447,-2.4729e-05,-3.88e-06,0.0,0 STARLINK-3057,1 49139U 21082K   22328.60280915 -.00000388  00000-0 -24729-4 0  9996,2 49139  70.0039  42.8265 0002972 269.6348  90.4470 14.98327493 67054,6950.201,96.107,574.131,570.0,0.0
49139.0,STARLINK-3057,PAYLOAD,2022-11-25 11:17:47,14.98333096,0.0003226,70.0033,40.6382,273.1733,86.9057,0.00013723,1.545e-05,0.0,0 STARLINK-3057,1 49139U 21082K   22329.47068671  .00001545  00000-0  13723-3 0  9990,2 49139  70.0033  40.6382 0003226 273.1733  86.9057 14.98333096 67186,6950.183000000001,96.107,574.29,569.806,0.0
49139.0,STARLINK-3057,PAYLOAD,2022-11-25 16:06:11,14.9833651,0.0003224,70.0034,40.1334,273.4246,86.6545,0.00020297,2.33e-05,0.0,0 STARLINK-3057,1 49139U 21082K   22329.67096542  .00002330  00000-0  20297-3 0  9997,2 49139  70.0034  40.1334 0003224 273.4246  86.6545 14.98336510 67216,6950.1730000000025,96.107,574.278,569.797,0.0
49139.0,STARLINK-3057,PAYLOAD,2022-11-26 11:19:47,14.98344378,0.0003259,70.0033,38.1138,273.3646,86.714,0.00044719,5.249e-05,0.0,0 STARLINK-3057,1 49139U 21082K   22330.47207877  .00005249  00000-0  44719-3 0  9999,2 49139  70.0033  38.1138 0003259 273.3646  86.7140 14.98344378 67331,6950.148,96.106,574.278,569.748,0.0
49139.0,STARLINK-3057,PAYLOAD,2022-11-26 17:44:20,14.983382,0.0003242,70.0033,37.4406,273.0564,87.0225,0.00020812,2.392e-05,0.0,0 STARLINK-3057,1 49139U 21082K   22330.73912059  .00002392  00000-0  20812-3 0  9997,2 49139  70.0033  37.4406 0003242 273.0564  87.0225 14.98338200 67378,6950.168000000002,96.106,574.286,569.779,0.0
49139.0,STARLINK-3057,PAYLOAD,2022-11-27 08:09:32,14.98337985,0.0003063,70.0036,35.9257,272.8081,87.2727,9.86e-05,1.084e-05,0.0,0 STARLINK-3057,1 49139U 21082K   22331.33995886  .00001084  00000-0  98600-4 0  9991,2 49139  70.0036  35.9257 0003063 272.8081  87.2727 14.98337985 67468,6950.168000000002,96.106,574.1619999999998,569.904,0.0
49139.0,STARLINK-3057,PAYLOAD,2022-11-27 17:46:20,14.98332029,0.0003291,70.0029,34.9161,272.1965,87.8817,-0.00010056,-1.293e-05,0.0,0 STARLINK-3057,1 49139U 21082K   22331.74051912 -.00001293  00000-0 -10056-3 0  9991,2 49139  70.0029  34.9161 0003291 272.1965  87.8817 14.98332029 67527,6950.187,96.107,574.339,569.764,0.0
49139.0,STARLINK-3057,PAYLOAD,2022-11-28 09:47:41,14.98338292,0.0003069,70.0033,33.2325,272.1256,87.9551,0.00014355,1.621e-05,0.0,0 STARLINK-3057,1 49139U 21082K   22332.40811682  .00001621  00000-0  14355-3 0  9992,2 49139  70.0033  33.2325 0003069 272.1256  87.9551 14.98338292 67627,6950.167,96.106,574.165,569.899,0.0
49139.0,STARLINK-3057,PAYLOAD,2022-11-28 17:48:22,14.98324723,0.0002699,70.0039,32.3902,278.1026,81.9827,-6.4594e-05,-8.63e-06,0.0,0 STARLINK-3057,1 49139U 21082K   22332.74192400 -.00000863  00000-0 -64594-4 0  9999,2 49139  70.0039  32.3902 0002699 278.1026  81.9827 14.98324723 67672,6950.209,96.107,573.95,570.198,0.0
49139.0,STARLINK-3057,PAYLOAD,2022-11-29 06:37:26,14.98326815,0.0003175,70.0028,31.044,273.5221,86.5575,0.0001807,2.064e-05,0.0,0 STARLINK-3057,1 49139U 21082K   22333.27600462  .00002064  00000-0  18070-3 0  9990,2 49139  70.0028  31.0440 0003175 273.5221  86.5575 14.98326815 67753,6950.203,96.107,574.274,569.861,0.0
49139.0,STARLINK-3057,PAYLOAD,2022-11-29 14:38:07,14.98330151,0.0003215,70.0031,30.2025,274.1238,85.9553,0.00019812,2.272e-05,0.0,0 STARLINK-3057,1 49139U 21082K   22333.60980376  .00002272  00000-0  19812-3 0  9998,2 49139  70.0031  30.2025 0003215 274.1238  85.9553 14.98330151 67800,6950.191999999999,96.107,574.2919999999998,569.823,0.0
49139.0,STARLINK-3057,PAYLOAD,2022-11-30 03:27:11,14.98337229,0.0003263,70.0032,28.8561,274.1635,85.9151,0.000315,3.668e-05,0.0,0 STARLINK-3057,1 49139U 21082K   22334.14388115  .00003668  00000-0  31500-3 0  9999,2 49139  70.0032  28.8561 0003263 274.1635  85.9151 14.98337229 67888,6950.170999999999,96.107,574.303,569.768,0.0
49139.0,STARLINK-3057,PAYLOAD,2022-11-30 09:51:43,14.98341711,0.0003225,70.0034,28.1827,274.2359,85.8432,0.00050845,5.981e-05,0.0,0 STARLINK-3057,1 49139U 21082K   22334.41091986  .00005981  00000-0  50845-3 0  9999,2 49139  70.0034  28.1827 0003225 274.2359  85.8432 14.98341711 67927,6950.156999999997,96.106,574.263,569.78,0.0
49139.0,STARLINK-3057,PAYLOAD,2022-11-30 14:40:07,14.98337497,0.00033,70.0036,27.678,273.4278,86.6504,0.00035192,4.109e-05,0.0,0 STARLINK-3057,1 49139U 21082K   22334.61120085  .00004109  00000-0  35192-3 0  9993,2 49139  70.0036  27.6780 0003300 273.4278  86.6504 14.98337497 67954,6950.17,96.107,574.328,569.741,0.0
